NORAD_CAT_ID,OBJECT_NAME,OBJECT_TYPE,EPOCH,MEAN_MOTION,ECCENTRICITY,INCLINATION,RA_OF_ASC_NODE,ARG_OF_PERICENTER,MEAN_ANOMALY,BSTAR,MEAN_MOTION_DOT,MEAN_MOTION_DDOT,TLE_LINE0,TLE_LINE1,TLE_LINE2,SEMIMAJOR_AXIS,PERIOD,APOGEE,PERIGEE,DECAYED
54178.0,STARLINK-5164,PAYLOAD,2023-04-02 19:35:44,15.08832669,0.0001088,53.2178,135.7465,118.9954,241.1147,0.00017525,2.502e-05,0.0,0 STARLINK-5164,1 54178U 22141X   23092.81648280  .00002502  00000-0  17525-3 0  9990,2 54178  53.2178 135.7465 0001088 118.9954 241.1147 15.08832669 24046,6917.903,95.438,540.52,539.015,0.0
54178.0,STARLINK-5164,PAYLOAD,2023-04-03 13:04:58,15.08849466,0.0001419,53.2167,132.4748,83.4496,276.6657,0.00042801,6.532e-05,0.0,0 STARLINK-5164,1 54178U 22141X   23093.54512000  .00006532  00000-0  42801-3 0  9993,2 54178  53.2167 132.4748 0001419  83.4496 276.6657 15.08849466 24151,6917.851,95.437,540.698,538.735,0.0
54178.0,STARLINK-5164,PAYLOAD,2023-04-03 19:26:30,15.08844234,0.000136,53.2167,131.286,91.3996,268.7152,0.00020547,2.984e-05,0.0,0 STARLINK-5164,1 54178U 22141X   23093.81008086  .00002984  00000-0  20547-3 0  9997,2 54178  53.2167 131.2860 0001360  91.3996 268.7152 15.08844234 24195,6917.867,95.437,540.673,538.792,0.0
54178.0,STARLINK-5164,PAYLOAD,2023-04-04 01:48:03,15.0884727,0.0001375,53.216,130.0972,90.9885,269.1265,0.00031803,4.778e-05,0.0,0 STARLINK-5164,1 54178U 22141X   23094.07504040  .00004778  00000-0  31803-3 0  9997,2 54178  53.2160 130.0972 0001375  90.9885 269.1265 15.08847270 24235,6917.858,95.437,540.674,538.772,0.0
54178.0,STARLINK-5164,PAYLOAD,2023-04-04 09:44:59,15.0885146,0.0001349,53.2158,128.6106,92.8768,267.2379,0.00056518,8.721e-05,0.0,0 STARLINK-5164,1 54178U 22141X   23094.40623916  .00008721  00000-0  56518-3 0  9990,2 54178  53.2158 128.6106 0001349  92.8768 267.2379 15.08851460 24282,6917.845,95.437,540.644,538.777,0.0
54178.0,STARLINK-5164,PAYLOAD,2023-04-04 14:31:08,15.0885375,0.0001596,53.2159,127.7184,90.9556,269.1619,0.00051945,7.992e-05,0.0,0 STARLINK-5164,1 54178U 22141X   23094.60495796  .00007992  00000-0  51945-3 0  9993,2 54178  53.2159 127.7184 0001596  90.9556 269.1619 15.08853750 24313,6917.838,95.437,540.807,538.599,0.0
54178.0,STARLINK-5164,PAYLOAD,2023-04-05 01:38:50,15.08833893,0.0001148,53.2163,125.6356,104.757,255.355,-6.2949e-05,-1.289e-05,0.0,0 STARLINK-5164,1 54178U 22141X   23095.06864263 -.00001289  00000-0 -62949-4 0  9995,2 54178  53.2163 125.6356 0001148 104.7570 255.3550 15.08833893 24383,6917.899,95.438,540.558,538.97,0.0
54178.0,STARLINK-5164,PAYLOAD,2023-04-05 11:11:09,15.08837764,0.0001385,53.216,123.8529,95.0634,265.0516,9.4438e-05,1.215e-05,0.0,0 STARLINK-5164,1 54178U 22141X   23095.46608469  .00001215  00000-0  94438-4 0  9998,2 54178  53.2160 123.8529 0001385  95.0634 265.0516 15.08837764 24446,6917.887,95.438,540.71,538.794,0.0
54178.0,STARLINK-5164,PAYLOAD,2023-04-06 04:40:24,15.08841834,0.0001356,53.2156,120.5818,96.5095,263.6052,0.00027997,4.171e-05,0.0,0 STARLINK-5164,1 54178U 22141X   23096.19472623  .00004171  00000-0  27997-3 0  9999,2 54178  53.2156 120.5818 0001356  96.5095 263.6052 15.08841834 24555,6917.875,95.437,540.678,538.802,0.0
54178.0,STARLINK-5164,PAYLOAD,2023-04-06 11:01:56,15.08846064,0.0001335,53.2155,119.392,95.0097,265.1048,0.00054768,8.441e-05,0.0,0 STARLINK-5164,1 54178U 22141X   23096.45968652  .00008441  00000-0  54768-3 0  9990,2 54178  53.2155 119.3920 0001335  95.0097 265.1048 15.08846064 24593,6917.862,95.437,540.65,538.803,0.0
54178.0,STARLINK-5164,PAYLOAD,2023-04-07 04:31:11,15.08841477,0.0001399,53.2158,116.1204,97.5735,262.5416,0.00022065,3.226e-05,0.0,0 STARLINK-5164,1 54178U 22141X   23097.18832845  .00003226  00000-0  22065-3 0  9996,2 54178  53.2158 116.1204 0001399  97.5735 262.5416 15.08841477 24708,6917.876,95.437,540.709,538.773,0.0
54178.0,STARLINK-5164,PAYLOAD,2023-04-07 12:28:07,15.08845704,0.0001387,53.2157,114.6328,98.4089,261.7061,0.00025373,3.753e-05,0.0,0 STARLINK-5164,1 54178U 22141X   23097.51952648  .00003753  00000-0  25373-3 0  9997,2 54178  53.2157 114.6328 0001387  98.4089 261.7061 15.08845704 24755,6917.863,95.437,540.687,538.768,0.0
54178.0,STARLINK-5164,PAYLOAD,2023-04-08 10:43:30,15.08848114,0.0001421,53.2166,110.4702,97.6089,262.5065,0.0001455,2.029e-05,0.0,0 STARLINK-5164,1 54178U 22141X   23098.44688315  .00002029  00000-0  14550-3 0  9997,2 54178  53.2166 110.4702 0001421  97.6089 262.5065 15.08848114 24891,6917.856,95.437,540.704,538.738,0.0
54178.0,STARLINK-5164,PAYLOAD,2023-04-09 02:37:22,15.08833663,0.0001228,53.2163,107.4961,100.2438,259.8693,-1.6697e-05,-5.54e-06,0.0,0 STARLINK-5164,1 54178U 22141X   23099.10929118 -.00000554  00000-0 -16697-4 0  9998,2 54178  53.2163 107.4961 0001228 100.2438 259.8693 15.08833663 24995,6917.9,95.438,540.614,538.915,0.0
54178.0,STARLINK-5164,PAYLOAD,2023-04-09 10:34:18,15.08838342,0.0001306,53.2165,106.0099,98.52,261.594,4.072e-05,3.6e-06,0.0,0 STARLINK-5164,1 54178U 22141X   23099.44048934  .00000360  00000-0  40720-4 0  9990,2 54178  53.2165 106.0099 0001306  98.5200 261.5940 15.08838342 25048,6917.885,95.438,540.654,538.847,0.0
54178.0,STARLINK-5164,PAYLOAD,2023-04-09 16:55:50,15.08837742,0.0001307,53.2166,104.8204,98.8108,261.3032,1.3586e-05,-7.2e-07,0.0,0 STARLINK-5164,1 54178U 22141X   23099.70544993 -.00000072  00000-0  13586-4 0  9996,2 54178  53.2166 104.8204 0001307  98.8108 261.3032 15.08837742 25081,6917.887,95.438,540.656,538.848,0.0
54178.0,STARLINK-5164,PAYLOAD,2023-04-10 00:52:46,15.08840179,0.0001208,53.2163,103.3334,95.2901,264.8229,9.1407e-05,1.167e-05,0.0,0 STARLINK-5164,1 54178U 22141X   23100.03664920  .00001167  00000-0  91407-4 0  9991,2 54178  53.2163 103.3334 0001208  95.2901 264.8229 15.08840179 25138,6917.88,95.438,540.581,538.909,0.0
54178.0,STARLINK-5164,PAYLOAD,2023-04-10 12:00:27,15.08850406,0.0001285,53.2171,101.252,100.8286,259.2851,0.00020689,3.007e-05,0.0,0 STARLINK-5164,1 54178U 22141X   23100.50032394  .00003007  00000-0  20689-3 0  9995,2 54178  53.2171 101.2520 0001285 100.8286 259.2851 15.08850406 25206,6917.849,95.437,540.603,538.825,0.0
54178.0,STARLINK-5164,PAYLOAD,2023-04-10 16:46:37,15.08847223,0.0001297,53.2168,100.3587,106.6079,253.5055,0.00010637,1.406e-05,0.0,0 STARLINK-5164,1 54178U 22141X   23100.69904520  .00001406  00000-0  10637-3 0  9997,2 54178  53.2168 100.3587 0001297 106.6079 253.5055 15.08847223 25231,6917.858,95.437,540.621,538.826,0.0
54178.0,STARLINK-5164,PAYLOAD,2023-04-11 10:15:52,15.0884355,0.0001247,53.2177,97.0892,93.2161,266.8974,0.00014574,2.033e-05,0.0,0 STARLINK-5164,1 54178U 22141X   23101.42768806  .00002033  00000-0  14574-3 0  9995,2 54178  53.2177  97.0892 0001247  93.2161 266.8974 15.08843550 25348,6917.87,95.437,540.597,538.872,0.0
54178.0,STARLINK-5164,PAYLOAD,2023-04-11 16:37:25,15.08840265,0.0001332,53.2187,95.8987,89.8451,270.2694,9.7153e-05,1.259e-05,0.0,0 STARLINK-5164,1 54178U 22141X   23101.69265180  .00001259  00000-0  97153-4 0  9995,2 54178  53.2187  95.8987 0001332  89.8451 270.2694 15.08840265 25380,6917.88,95.438,540.666,538.823,0.0
54178.0,STARLINK-5164,PAYLOAD,2023-04-12 06:55:53,15.08840272,0.0001457,53.2192,93.2226,102.9261,257.1894,2.1612e-05,5.6e-07,0.0,0 STARLINK-5164,1 54178U 22141X   23102.28881334  .00000056  00000-0  21612-4 0  9997,2 54178  53.2192  93.2226 0001457 102.9261 257.1894 15.08840272 25472,6917.88,95.438,540.752,538.737,0.0
54178.0,STARLINK-5164,PAYLOAD,2023-04-13 06:46:40,15.08842648,0.0001173,53.2184,88.7627,100.6757,259.4367,2.3074e-05,7.9e-07,0.0,0 STARLINK-5164,1 54178U 22141X   23103.28241311  .00000079  00000-0  23074-4 0  9992,2 54178  53.2184  88.7627 0001173 100.6757 259.4367 15.08842648 25623,6917.872,95.437,540.549,538.926,0.0
54178.0,STARLINK-5164,PAYLOAD,2023-04-13 16:18:59,15.08842361,0.0001258,53.2186,86.9791,85.93,274.1836,6.4975e-05,7.46e-06,0.0,0 STARLINK-5164,1 54178U 22141X   23103.67985305  .00000746  00000-0  64975-4 0  9999,2 54178  53.2186  86.9791 0001258  85.9300 274.1836 15.08842361 25683,6917.873,95.437,540.608,538.868,0.0
54178.0,STARLINK-5164,PAYLOAD,2023-04-14 08:12:50,15.08850393,0.0001227,53.218,84.0058,83.237,276.8761,0.00016867,2.398e-05,0.0,0 STARLINK-5164,1 54178U 22141X   23104.34224575  .00002398  00000-0  16867-3 0  9990,2 54178  53.2180  84.0058 0001227  83.2370 276.8761 15.08850393 25787,6917.849,95.437,540.562,538.865,0.0
54178.0,STARLINK-5164,PAYLOAD,2023-04-14 16:09:46,15.08838301,0.0001759,53.2183,82.5201,73.4258,286.6927,8.7422e-05,1.103e-05,0.0,0 STARLINK-5164,1 54178U 22141X   23104.67345804  .00001103  00000-0  87422-4 0  9994,2 54178  53.2183  82.5201 0001759  73.4258 286.6927 15.08838301 25833,6917.886,95.438,540.967,538.534,0.0
54178.0,STARLINK-5164,PAYLOAD,2023-04-15 08:03:37,15.08845089,0.0001365,53.2171,79.5446,82.5855,277.5292,0.00016135,2.281e-05,0.0,0 STARLINK-5164,1 54178U 22141X   23105.33585411  .00002281  00000-0  16135-3 0  9998,2 54178  53.2171  79.5446 0001365  82.5855 277.5292 15.08845089 25930,6917.865,95.437,540.674,538.786,0.0
54178.0,STARLINK-5164,PAYLOAD,2023-04-16 04:43:38,15.08850116,0.0001227,53.2176,75.6775,90.1202,269.9931,6.2888e-05,7.13e-06,0.0,0 STARLINK-5164,1 54178U 22141X   23106.19697008  .00000713  00000-0  62888-4 0  9994,2 54178  53.2176  75.6775 0001227  90.1202 269.9931 15.08850116 26062,6917.849,95.437,540.563,538.866,0.0
54178.0,STARLINK-5164,PAYLOAD,2023-04-16 07:54:24,15.08850408,0.0001258,53.2178,75.0829,100.2795,259.8339,0.00012806,1.751e-05,0.0,0 STARLINK-5164,1 54178U 22141X   23106.32944941  .00001751  00000-0  12806-3 0  9997,2 54178  53.2178  75.0829 0001258 100.2795 259.8339 15.08850408 26088,6917.849,95.437,540.584,538.843,0.0
54178.0,STARLINK-5164,PAYLOAD,2023-04-17 04:34:25,15.08843905,0.0001159,53.217,71.2168,88.777,271.3355,0.00014208,1.974e-05,0.0,0 STARLINK-5164,1 54178U 22141X   23107.19057478  .00001974  00000-0  14208-3 0  9998,2 54178  53.2170  71.2168 0001159  88.7770 271.3355 15.08843905 26213,6917.868,95.437,540.535,538.932,0.0
